{"type": "FeatureCollection", "features": [{"type": "Feature", "properties": {"Name": "Paraseki Dump Site", "descriptio": "", "timestamp": "", "begin": "", "end": "", "altitudeMo": "", "tessellate": 1, "extrude": 0, "visibility": -1, "drawOrder": null, "icon": ""}, "geometry": {"type": "Polygon", "coordinates": [[[100.67041387870697, 13.579940465225711], [100.67033775609883, 13.580021913481929], [100.67027626182863, 13.580157030236826], [100.6702293958964, 13.580345815490407], [100.67019715830213, 13.580588269242668], [100.67017954904583, 13.580884391493608], [100.67017656812749, 13.58123418224323], [100.67018821554709, 13.581637641491536], [100.67021449130463, 13.58209476923852], [100.67025539540016, 13.582605565484183], [100.67030164583015, 13.58305512751514], [100.67035324259462, 13.583443455331386], [100.67041018569357, 13.583770548932922], [100.67047247512699, 13.584036408319749], [100.67054011089488, 13.584241033491866], [100.67061309299726, 13.584384424449272], [100.6706914214341, 13.58446658119197], [100.6707750962054, 13.584487503719961], [100.67087196808745, 13.58451343525577], [100.67098203708025, 13.584544375799398], [100.6711053031838, 13.58458032535085], [100.67124176639808, 13.58462128391012], [100.67139142672309, 13.58466725147721], [100.67155428415884, 13.584718228052122], [100.67173033870536, 13.584774213634855], [100.67191959036262, 13.584835208225407], [100.67210664363364, 13.58486775079584], [100.67229149851846, 13.584871841346157], [100.67247415501704, 13.584847479876355], [100.6726546131294, 13.584794666386438], [100.67283287285554, 13.5847134008764], [100.67300893419547, 13.584603683346245], [100.67318279714917, 13.584465513795971], [100.67335446171663, 13.58429889222558], [100.67350904151854, 13.584095205653927], [100.67364653655491, 13.583854454081012], [100.67376694682571, 13.583576637506836], [100.67387027233093, 13.583261755931398], [100.6739565130706, 13.582909809354698], [100.67402566904475, 13.582520797776734], [100.67407774025331, 13.582094721197508], [100.67411272669631, 13.581631579617023], [100.67413796629921, 13.581219493987646], [100.67415345906205, 13.580858464309383], [100.67415920498482, 13.580548490582231], [100.67415520406747, 13.580289572806192], [100.67414145631007, 13.580081710981265], [100.67411796171257, 13.579924905107447], [100.67408472027499, 13.57981915518474], [100.67404173199732, 13.579764461213149], [100.67398255604968, 13.579713543598551], [100.6739071924321, 13.579666402340951], [100.67381564114453, 13.579623037440344], [100.67370790218698, 13.57958344889673], [100.67358397555947, 13.579547636710116], [100.673443861262, 13.579515600880498], [100.67328755929456, 13.579487341407875], [100.67311506965714, 13.579462858292247], [100.67295764758568, 13.579441170617732], [100.67281529308012, 13.579422278384328], [100.67268800614048, 13.579406181592038], [100.67257578676679, 13.579392880240858], [100.672478634959, 13.579382374330791], [100.67239655071717, 13.579374663861838], [100.67232953404124, 13.579369748833997], [100.67227758493125, 13.579367629247265], [100.67222459446874, 13.579365912189092], [100.67217056265372, 13.579364597659472], [100.67211548948619, 13.579363685658407], [100.67205937496614, 13.579363176185902], [100.67200221909357, 13.57936306924195], [100.67194402186847, 13.579363364826548], [100.67188478329086, 13.579364062939707], [100.67182450336074, 13.579365163581421], [100.67175717692547, 13.579370601338258], [100.67168280398509, 13.579380376210215], [100.67160138453954, 13.579394488197297], [100.67151291858886, 13.5794129372995], [100.67141740613306, 13.579435723516825], [100.67131484717208, 13.579462846849271], [100.671205241706, 13.579494307296839], [100.67108858973478, 13.579530104859531], [100.67097700393394, 13.579571608758911], [100.67087048430349, 13.579618818994986], [100.67076903084342, 13.57967173556775], [100.67067264355373, 13.579730358477203], [100.67058132243443, 13.57979468772335], [100.6704950674855, 13.579864723306185], [100.67041387870697, 13.579940465225711]]]}}]}